     2.11           N: GPS NAV DATA                         RINEX VERSION / TYPE
teqc  2019Feb25                         20221121 12:24:37UTCPGM / RUN BY / DATE
OSX ker:10.11.6|Core i5|gcc 4.3 -m64|OSX ker:10.10+|=+      COMMENT
    4.6566D-09  1.4901D-08 -5.9605D-08 -1.1921D-07          ION ALPHA
    8.1920D+04  9.8304D+04 -6.5536D+04 -5.2429D+05          ION BETA
   -9.313225746155D-10-7.993605777301D-15    61440     1538 DELTA-UTC: A0,A1,T,W
                                                            END OF HEADER
 3 09  6 28  0  0  0.0 4.125116392970D-04 5.115907697473D-12 0.000000000000D+00
    9.200000000000D+01-2.431250000000D+01 5.452012812503D-09 1.044255718517D+00
   -1.022592186928D-06 1.198912237305D-02 1.117959618568D-05 5.153641365051D+03
    0.000000000000D+00-1.024454832077D-07-2.182447152164D+00 1.695007085800D-07
    9.262513349088D-01 1.495000000000D+02 9.073011125046D-01-8.578928775390D-09
   -1.857220217820D-10 1.000000000000D+00 1.538000000000D+03 0.000000000000D+00
    2.800000000000D+00 0.000000000000D+00-4.190951585770D-09 9.200000000000D+01
   -7.182000000000D+03 4.000000000000D+00
 6 09  6 28  0  0  0.0 1.753899268806D-04 1.227817847393D-11 0.000000000000D+00
    1.110000000000D+02-1.262500000000D+01 5.165572309678D-09-2.825638064150D+00
   -5.569308996201D-07 5.993900704198D-03 1.091137528419D-05 5.153704618454D+03
    0.000000000000D+00 7.078051567078D-08-2.114590652343D+00 1.527369022369D-07
    9.336760859624D-01 1.530937500000D+02-1.329243977810D+00-8.164625803722D-09
   -3.571577341961D-12 1.000000000000D+00 1.538000000000D+03 0.000000000000D+00
    2.000000000000D+00 0.000000000000D+00-4.656612873077D-09 1.110000000000D+02
   -7.182000000000D+03 4.000000000000D+00
 7 09  6 28  0  0  0.0 1.626275479794D-05-6.821210263297D-13 0.000000000000D+00
    6.600000000000D+01 3.556250000000D+01 4.614120768079D-09-3.261957167324D-01
    1.849606633186D-06 2.744014607742D-03 5.662441253662D-06 5.153661678314D+03
    0.000000000000D+00 5.774199962616D-08 2.121505201939D+00-1.490116119385D-08
    9.677251487682D-01 2.712812500000D+02 2.877432766522D+00-8.305345950996D-09
    4.707338936704D-10 1.000000000000D+00 1.538000000000D+03 0.000000000000D+00
    2.000000000000D+00 0.000000000000D+00-1.071020960808D-08 6.600000000000D+01
   -7.182000000000D+03 4.000000000000D+00
21 09  6 28  0  0  0.0 5.915760993958D-06-2.160049916711D-12 0.000000000000D+00
    3.300000000000D+01 5.206250000000D+01 5.208431237782D-09-1.296758211207D+00
    2.620741724968D-06 1.542331255041D-02 6.299465894699D-06 5.153603303909D+03
    0.000000000000D+00 2.998858690262D-07-1.002743523538D+00-1.676380634308D-07
    9.336532293303D-01 2.427812500000D+02-2.586206348047D+00-8.389278018532D-09
    1.089331089298D-10 1.000000000000D+00 1.538000000000D+03 0.000000000000D+00
    2.000000000000D+00 0.000000000000D+00-1.210719347000D-08 3.300000000000D+01
   -7.182000000000D+03 4.000000000000D+00
13 09  6 28  0  0  0.0 3.003175370395D-04 7.958078640513D-13 0.000000000000D+00
    4.800000000000D+01 2.015625000000D+01 3.411570677041D-09 1.965432095519D+00
    1.065433025360D-06 4.154956550337D-03 1.083500683308D-05 5.153694538116D+03
    0.000000000000D+00 1.024454832077D-07 1.131991975964D+00-4.097819328308D-08
    9.947132224155D-01 1.869375000000D+02 1.606111934335D+00-7.547814396766D-09
    1.017899542459D-10 1.000000000000D+00 1.538000000000D+03 0.000000000000D+00
    2.000000000000D+00 0.000000000000D+00-1.117587089539D-08 4.800000000000D+01
   -7.182000000000D+03 4.000000000000D+00
19 09  6 28  0  0  0.0 2.101995050907D-05-1.364242052659D-12 0.000000000000D+00
    6.200000000000D+01-3.468750000000D+00 4.611977821674D-09 1.785140149155D+00
    1.024454832077D-07 5.711501115002D-03 1.154467463493D-05 5.153627483368D+03
    0.000000000000D+00 1.210719347000D-07-1.994466431681D+00 5.587935447693D-08
    9.572257374370D-01 1.509062500000D+02-3.396479638382D-01-8.009262189347D-09
   -1.110760553350D-10 1.000000000000D+00 1.538000000000D+03 0.000000000000D+00
    2.000000000000D+00 0.000000000000D+00-1.443549990654D-08 6.200000000000D+01
   -7.182000000000D+03 4.000000000000D+00
10 09  6 28  0  0  0.0-1.816777512431D-05-5.684341886081D-13 0.000000000000D+00
    2.400000000000D+01-1.306250000000D+01 4.667337270474D-09 2.318706850145D+00
   -8.177012205124D-07 8.567275945097D-03 6.040558218956D-06 5.153623191833D+03
    0.000000000000D+00-3.725290298462D-08 5.033358807026D-02-8.568167686462D-08
    9.581752941556D-01 2.639375000000D+02 6.267545914159D-01-8.232485773220D-09
   -3.675153084878D-10 1.000000000000D+00 1.538000000000D+03 0.000000000000D+00
    2.000000000000D+00 0.000000000000D+00-2.793967723846D-09 2.400000000000D+01
   -7.182000000000D+03 4.000000000000D+00
16 09  6 28  0  0  0.0 3.799889236689D-05-3.524291969370D-12 0.000000000000D+00
    5.800000000000D+01-7.634375000000D+01 4.662337062196D-09-2.770409179142D+00
   -3.840774297714D-06 5.362596129999D-03 6.712973117828D-06 5.153570945740D+03
    0.000000000000D+00-1.285225152969D-07-3.092575279248D+00 2.793967723846D-08
    9.690553611598D-01 2.555000000000D+02-3.274561303765D-01-8.055335537058D-09
   -1.425059359442D-10 1.000000000000D+00 1.538000000000D+03 0.000000000000D+00
    2.000000000000D+00 0.000000000000D+00-9.778887033463D-09 5.800000000000D+01
   -7.182000000000D+03 4.000000000000D+00
 8 09  6 28  0  0  0.0-2.094618976116D-04-1.477928890381D-12 0.000000000000D+00
    1.590000000000D+02 2.603125000000D+01 4.145886978548D-09-1.053222098494D+00
    1.084059476852D-06 1.066835352685D-02 5.614012479782D-06 5.153636737823D+03
    0.000000000000D+00 4.284083843231D-08 2.182522681162D+00-1.713633537292D-07
    9.889597514004D-01 2.831250000000D+02 2.995171555889D+00-8.068193215490D-09
    5.621662736246D-10 1.000000000000D+00 1.538000000000D+03 0.000000000000D+00
    2.800000000000D+00 0.000000000000D+00-3.725290298462D-09 1.590000000000D+02
   -7.182000000000D+03 4.000000000000D+00
18 09  6 28  0  0  0.0-4.458986222744D-05 3.183231456205D-12 0.000000000000D+00
    6.200000000000D+01-2.003125000000D+01 4.824843831255D-09-2.576443706148D+00
   -1.059845089912D-06 1.058516255580D-02 6.334856152534D-06 5.153605983734D+03
    0.000000000000D+00 2.980232238770D-08 5.530858478456D-02-1.471489667892D-07
    9.422118969646D-01 2.473437500000D+02-2.413076680364D+00-8.206770416358D-09
   -2.360812623036D-10 1.000000000000D+00 1.538000000000D+03 0.000000000000D+00
    2.000000000000D+00 0.000000000000D+00-1.071020960808D-08 6.200000000000D+01
   -4.188000000000D+03 4.000000000000D+00
15 09  6 28  0  0  0.0-3.043748438358D-04-2.842170943040D-12 0.000000000000D+00
    3.100000000000D+01 7.218750000000D+00 4.348395413837D-09 2.030664178823D+00
    3.147870302200D-07 1.456153113395D-03 9.750947356224D-06 5.153633443832D+03
    0.000000000000D+00-4.656612873077D-08 1.058816156789D+00-5.587935447693D-09
    9.562208209725D-01 1.890000000000D+02-4.670586590736D-01-7.990332829435D-09
    3.214419607765D-12 1.000000000000D+00 1.538000000000D+03 0.000000000000D+00
    2.000000000000D+00 0.000000000000D+00-9.778887033463D-09 3.100000000000D+01
   -3.108000000000D+03 4.000000000000D+00
22 09  6 28  0  0  0.0 1.966301351786D-04-9.094947017729D-13 0.000000000000D+00
    4.700000000000D+01-1.421875000000D+01 4.916633368943D-09 2.677865999639D+00
   -7.543712854385D-07 5.106051336043D-03 6.305053830147D-06 5.153658445358D+03
    0.000000000000D+00 4.097819328308D-08 6.092734884006D-02-2.793967723846D-08
    9.398767256839D-01 2.466875000000D+02-1.893880760558D+00-8.291059641628D-09
   -3.167989102319D-10 1.000000000000D+00 1.538000000000D+03 0.000000000000D+00
    2.000000000000D+00 0.000000000000D+00-1.769512891769D-08 4.700000000000D+01
   -1.668000000000D+03 4.000000000000D+00
28 09  6 28  0  0  0.0-2.569332718849D-05-1.136868377216D-13 0.000000000000D+00
    2.500000000000D+01-8.193750000000D+01 4.701267255223D-09 2.921305830399D+00
   -4.269182682037D-06 1.491434662603D-02 6.055459380150D-06 5.153645858765D+03
    0.000000000000D+00 8.940696716309D-08-3.084435535761D+00-2.104789018631D-07
    9.672549668976D-01 2.645312500000D+02-2.022342386884D+00-7.989975671701D-09
   -2.253665302777D-10 1.000000000000D+00 1.538000000000D+03 0.000000000000D+00
    2.000000000000D+00 0.000000000000D+00-1.071020960808D-08 2.500000000000D+01
   -1.668000000000D+03 4.000000000000D+00
11 09  6 28  0  0  0.0-8.287839591503D-06-1.591615728103D-12 0.000000000000D+00
    5.900000000000D+01 6.543750000000D+01 6.429196373264D-09-5.083130878861D-01
    3.313645720482D-06 9.445028146729D-03 7.309019565582D-06 5.153687662125D+03
    0.000000000000D+00 7.450580596924D-08-1.235765905879D+00 1.899898052216D-07
    8.889929224207D-01 1.977812500000D+02 7.005946353787D-01-9.182882503916D-09
    9.214669542259D-11 1.000000000000D+00 1.538000000000D+03 0.000000000000D+00
    2.000000000000D+00 0.000000000000D+00-1.164153218269D-08 5.900000000000D+01
   -1.380000000000D+02 4.000000000000D+00
